32263,GLOBALSTAR M067,2007,116.07,450.0,-,51.97,Inactive,1,LEO,Kazakhstan,Globalstar,Commercial,Communications,Soyuz,1 32263U 07048A   24134.24218779 -.00000052  00000+0  33935-3 0  9992,2 32263  51.9702 126.1769 0000728 213.6725 159.3897 12.40644570759845,12.4064457,7.28e-05,LEO
32266,GLOBALSTAR M068,2007,114.03,-1.0,-,51.99,Inactive,0,LEO,Kazakhstan,Globalstar,Unknown,Unknown,Unknown,1 32266U 07048D   24134.11600839 -.00000026  00000+0  43160-3 0  9995,2 32266  51.9887  81.7684 0001148   0.4607  12.8632 12.62788601767018,12.62788601,0.0001148,LEO
32264,GLOBALSTAR M070,2007,114.08,450.0,+,51.97,Active,1,LEO,Kazakhstan,Globalstar,Commercial,Communications,Soyuz,1 32264U 07048B   24134.33826782 -.00000050  00000+0  29776-3 0  9998,2 32264  51.9749 266.5786 0000391 117.0898 260.6282 12.62292050763170,12.6229205,3.91e-05,LEO
32265,GLOBALSTAR M066,2007,114.08,450.0,+,51.97,Active,1,LEO,Kazakhstan,Globalstar,Commercial,Communications,Soyuz,1 32265U 07048C   24134.40644494 -.00000101  00000+0  14200-4 0  9999,2 32265  51.9651 128.3507 0000066 281.2961 225.6741 12.62261937765446,12.62261937,6.6e-06,LEO
37188,GLOBALSTAR M079,2010,114.08,700.0,+,52.0,Active,1,LEO,Kazakhstan,Globalstar,Commercial,Communications,Soyuz,1 37188U 10054A   24134.53823569 -.00000067  00000+0  20691-3 0  9996,2 37188  52.0038 276.3809 0000959 122.9349 311.8882 12.62269649625983,12.62269649,9.59e-05,LEO
37189,GLOBALSTAR M074,2010,114.08,700.0,+,52.0,Active,1,LEO,Kazakhstan,Globalstar,Commercial,Communications,Soyuz,1 37189U 10054B   24134.57577524 -.00000068  00000+0  20128-3 0  9994,2 37189  52.0016 275.6521 0000681 116.1810   8.5753 12.62268375626593,12.62268375,6.81e-05,LEO
37190,GLOBALSTAR M076,2010,114.08,700.0,+,52.0,Active,1,LEO,Kazakhstan,Globalstar,Commercial,Communications,Soyuz,1 37190U 10054C   24134.42288064 -.00000062  00000+0  23277-3 0  9990,2 37190  52.0030 276.2498 0000841 152.2700 239.0819 12.62278665626292,12.62278665,8.41e-05,LEO
37191,GLOBALSTAR M077,2010,114.08,700.0,+,52.01,Active,1,LEO,Kazakhstan,Globalstar,Commercial,Communications,Soyuz,1 37191U 10054D   24134.56444649 -.00000064  00000+0  22412-3 0  9991,2 37191  52.0068 232.5624 0000449 140.0837 233.3838 12.62272849626689,12.62272849,4.49e-05,LEO
